OBJECT_NAME,OBJECT_ID,EPOCH,MEAN_MOTION,ECCENTRICITY,INCLINATION,RA_OF_ASC_NODE,ARG_OF_PERICENTER,MEAN_ANOMALY,EPHEMERIS_TYPE,CLASSIFICATION_TYPE,NORAD_CAT_ID,ELEMENT_SET_NO,REV_AT_EPOCH,BSTAR,MEAN_MOTION_DOT,MEAN_MOTION_DDOT
OCEANSAT-2,2009-051A,2026-06-18T21:57:53.771616,13.99664002,.0015338,98.2331,156.5943,230.7654,129.2151,0,U,35931,999,87957,-.92408E-4,-.173E-5,0
WORLDVIEW-2 (WV-2),2009-055A,2026-06-18T20:00:45.808128,14.37899832,.0003807,98.4737,243.2607,202.4474,157.6547,0,U,35946,999,87588,.41258E-4,.81E-6,0
SMOS,2009-059A,2026-06-18T18:54:36.922176,14.39773289,.0001325,98.4425,357.0993,88.4678,271.6662,0,U,36036,999,87368,.68816E-4,.172E-5,0
YAOGAN-7,2009-069A,2026-06-18T15:30:03.517920,14.78011211,.0025487,98.0070,55.5039,37.2065,323.0906,0,U,36110,999,88984,.5905E-4,.375E-5,0
TANDEM-X,2010-030A,2026-06-17T14:05:11.365440,15.19150445,.00018883,97.4451,176.2891,87.7615,272.3836,0,U,36605,999,88670,.16858258E-4,.287E-5,0
CARTOSAT-2B,2010-035A,2026-06-18T19:52:55.847424,14.78661784,.0011306,97.9947,220.3679,178.4770,181.6477,0,U,36795,999,86009,.36276E-4,.214E-5,0
YAOGAN-10,2010-038A,2026-06-18T20:29:58.685280,14.85353063,.000171,97.8969,193.2451,89.4416,83.6238,0,U,36834,999,85745,.16452E-3,.1361E-4,0
COSMO-SKYMED 4,2010-060A,2026-06-18T20:40:31.670688,14.82154410,.0001393,97.8882,353.4364,82.9975,277.1397,0,U,37216,999,84481,.62396E-4,.445E-5,0
RESOURCESAT-2,2011-015A,2026-06-18T15:17:53.621088,14.21606885,.0010245,98.7644,237.0693,250.8490,109.1579,0,U,37387,999,78638,.57062E-4,.81E-6,0
HAIYANG-2A,2011-043A,2026-06-18T20:36:04.476960,13.74331359,.000581,99.3390,172.4976,88.4244,271.7570,0,U,37781,999,74688,-.27251E-3,-.301E-5,0
RASAT,2011-044D,2026-06-18T19:54:10.135872,14.68167316,.002029,98.0579,261.2010,183.4949,323.3285,0,U,37791,999,79342,.61578E-4,.306E-5,0
SRMSAT,2011-058D,2026-06-18T08:54:29.813760,14.11575778,.0011756,19.9726,52.3001,216.7081,303.9733,0,U,37841,999,75798,.48168E-4,.354E-5,0
PLEIADES 1A,2011-076F,2026-06-18T20:30:38.715264,14.58571506,.000167,98.1977,244.9354,94.3078,40.6702,0,U,38012,999,77223,.36002E-4,.122E-5,0
ZIYUAN 1-02C (ZY 1-02C),2011-079A,2026-06-18T21:27:05.039712,14.38215546,.0005397,98.4070,237.1669,310.6359,159.8528,0,U,38038,999,75945,.79409E-4,.198E-5,0
ARIRANG-3 (KOMPSAT-3),2012-025B,2026-06-18T21:07:41.024352,14.62207403,.0006719,98.1171,127.3110,105.0886,255.1059,0,U,38338,999,75159,.7406E-4,.327E-5,0
EXACTVIEW-1 (ADS-1B),2012-039C,2026-06-18T18:51:11.805120,14.24984990,.0011253,98.9780,287.2118,161.9281,198.2299,0,U,38709,999,72293,.57197E-4,.87E-6,0
SPOT 6,2012-047A,2026-06-18T20:15:43.937856,14.58563537,.0001504,98.2117,237.1340,91.7367,268.4004,0,U,38755,999,73329,.37071E-4,.127E-5,0
PLEIADES 1B,2012-068A,2026-06-18T20:42:58.752864,14.58561455,.0001678,98.1947,244.8919,90.3978,269.7414,0,U,39019,999,72109,.55321E-4,.212E-5,0
GOKTURK 2,2012-073A,2026-06-18T20:15:15.662592,14.75544846,.000154,97.6812,7.1919,56.0762,304.0595,0,U,39030,999,72475,.94957E-4,.6E-5,0
LANDSAT 8,2013-008A,2026-06-18T19:26:38.004576,14.57095403,.0001356,98.2302,239.9262,93.6149,266.5204,0,U,39084,999,69813,.6058E-4,.227E-5,0
SARAL,2013-009A,2026-06-18T20:33:22.468320,14.32856274,.0000655,98.5557,356.4026,297.5924,62.5193,0,U,39086,999,69584,.3599E-4,.54E-6,0
GAOFEN-1,2013-018A,2026-06-18T19:47:55.978080,14.76537344,.001569,97.9094,241.8597,260.6375,99.3061,0,U,39150,999,70848,.52015E-4,.312E-5,0
VNREDSAT 1,2013-021B,2026-06-18T20:45:35.896320,14.64858372,.0001725,97.9074,223.2173,88.0828,272.0574,0,U,39160,999,70053,.91118E-4,.441E-5,0
ARIRANG-5 (KOMPSAT-5),2013-042A,2026-06-18T19:53:31.289568,15.04494939,.0005432,97.6201,356.5062,116.2328,243.9456,0,U,39227,999,70410,.50994E-4,.653E-5,0
SKYSAT-A,2013-066C,2026-06-18T09:09:34.959168,15.12980718,.002002,97.3811,218.7409,313.1240,46.8317,0,U,39418,999,68866,.11156E-3,.1913E-4,0
DUBAISAT-2,2013-066D,2026-06-18T20:38:05.548416,15.10190277,.0012004,97.4563,159.9599,35.4343,324.7682,0,U,39419,999,68664,.19389E-3,.3109E-4,0
GPM-CORE,2014-009C,2026-06-18T19:52:28.627104,15.44600582,.0011773,64.9726,302.6310,252.1360,107.8497,0,U,39574,999,69806,.19679E-3,.8981E-4,0
SENTINEL-1A,2014-016A,2026-06-18T21:01:32.073024,14.59199024,.0001418,98.1775,177.3843,81.4129,278.7231,0,U,39634,999,65026,.67967E-5,-.14E-6,0
KAZEOSAT 1,2014-024A,2026-06-18T19:48:59.946912,14.42080046,.0001319,98.3205,242.2322,75.1249,285.0087,0,U,39731,999,63879,-.77982E-6,-.45E-6,0
ALOS-2,2014-029A,2026-06-18T19:55:11.294976,14.79473749,.0001661,97.9224,266.9699,91.0596,269.0805,0,U,39766,999,65182,.17207E-3,.1234E-4,0
KAZEOSAT 2,2014-033A,2026-06-18T20:19:13.467360,14.85472454,.0007709,97.5398,9.3703,323.5847,36.4844,0,U,40010,999,64920,.97106E-4,.788E-5,0
