OCEANSAT-2              
1 35931U 09051A   26169.91520569 -.00000173  00000+0 -92408-4 0  9996
2 35931  98.2331 156.5943 0015338 230.7654 129.2151 13.99664002879576
WORLDVIEW-2 (WV-2)      
1 35946U 09055A   26169.83386352  .00000081  00000+0  41258-4 0  9990
2 35946  98.4737 243.2607 0003807 202.4474 157.6547 14.37899832875887
SMOS                    
1 36036U 09059A   26169.78792734  .00000172  00000+0  68816-4 0  9994
2 36036  98.4425 357.0993 0001325  88.4678 271.6662 14.39773289873685
YAOGAN-7                
1 36110U 09069A   26169.64587405  .00000375  00000+0  59050-4 0  9995
2 36110  98.0070  55.5039 0025487  37.2065 323.0906 14.78011211889849
TANDEM-X                
1 36605U 10030A   26168.58693710  .00000287  00000+0  16858-4 0  9994
2 36605  97.4451 176.2891 0001888  87.7615 272.3836 15.19150445886700
CARTOSAT-2B             
1 36795U 10035A   26169.82842416  .00000214  00000+0  36276-4 0  9992
2 36795  97.9947 220.3679 0011306 178.4770 181.6477 14.78661784860090
YAOGAN-10               
1 36834U 10038A   26169.85415145  .00001361  00000+0  16452-3 0  9994
2 36834  97.8969 193.2451 0001710  89.4416  83.6238 14.85353063857457
COSMO-SKYMED 4          
1 37216U 10060A   26169.86147767  .00000445  00000+0  62396-4 0  9998
2 37216  97.8882 353.4364 0001393  82.9975 277.1397 14.82154410844818
RESOURCESAT-2           
1 37387U 11015A   26169.63742617  .00000081  00000+0  57062-4 0  9998
2 37387  98.7644 237.0693 0010245 250.8490 109.1579 14.21606885786383
HAIYANG-2A              
1 37781U 11043A   26169.85838515 -.00000301  00000+0 -27251-3 0  9997
2 37781  99.3390 172.4976 0005810  88.4244 271.7570 13.74331359746882
RASAT                   
1 37791U 11044D   26169.82928398  .00000306  00000+0  61578-4 0  9999
2 37791  98.0579 261.2010 0020290 183.4949 323.3285 14.68167316793424
SRMSAT                  
1 37841U 11058D   26169.37117840  .00000354  00000+0  48168-4 0  9995
2 37841  19.9726  52.3001 0011756 216.7081 303.9733 14.11575778757985
PLEIADES 1A             
1 38012U 11076F   26169.85461476  .00000122  00000+0  36002-4 0  9993
2 38012  98.1977 244.9354 0001670  94.3078  40.6702 14.58571506772235
ZIYUAN 1-02C (ZY 1-02C) 
1 38038U 11079A   26169.89380833  .00000198  00000+0  79409-4 0  9996
2 38038  98.4070 237.1669 0005397 310.6359 159.8528 14.38215546759454
ARIRANG-3 (KOMPSAT-3)   
1 38338U 12025B   26169.88033593  .00000327  00000+0  74060-4 0  9990
2 38338  98.1171 127.3110 0006719 105.0886 255.1059 14.62207403751593
EXACTVIEW-1 (ADS-1B)    
1 38709U 12039C   26169.78555330  .00000087  00000+0  57197-4 0  9999
2 38709  98.9780 287.2118 0011253 161.9281 198.2299 14.24984990722932
SPOT 6                  
1 38755U 12047A   26169.84425854  .00000127  00000+0  37071-4 0  9997
2 38755  98.2117 237.1340 0001504  91.7367 268.4004 14.58563537733296
PLEIADES 1B             
1 39019U 12068A   26169.86318001  .00000212  00000+0  55321-4 0  9994
2 39019  98.1947 244.8919 0001678  90.3978 269.7414 14.58561455721093
GOKTURK 2               
1 39030U 12073A   26169.84393128  .00000600  00000+0  94957-4 0  9993
2 39030  97.6812   7.1919 0001540  56.0762 304.0595 14.75544846724752
LANDSAT 8               
1 39084U 13008A   26169.81016209  .00000227  00000+0  60580-4 0  9990
2 39084  98.2302 239.9262 0001356  93.6149 266.5204 14.57095403698130
SARAL                   
1 39086U 13009A   26169.85651005  .00000054  00000+0  35990-4 0  9991
2 39086  98.5557 356.4026 0000655 297.5924  62.5193 14.32856274695847
GAOFEN-1                
1 39150U 13018A   26169.82495345  .00000312  00000+0  52015-4 0  9997
2 39150  97.9094 241.8597 0015690 260.6375  99.3061 14.76537344708483
VNREDSAT 1              
1 39160U 13021B   26169.86499880  .00000441  00000+0  91118-4 0  9994
2 39160  97.9074 223.2173 0001725  88.0828 272.0574 14.64858372700536
ARIRANG-5 (KOMPSAT-5)   
1 39227U 13042A   26169.82883437  .00000653  00000+0  50994-4 0  9994
2 39227  97.6201 356.5062 0005432 116.2328 243.9456 15.04494939704107
SKYSAT-A                
1 39418U 13066C   26169.38165462  .00001913  00000+0  11156-3 0  9990
2 39418  97.3811 218.7409 0020020 313.1240  46.8317 15.12980718688660
DUBAISAT-2              
1 39419U 13066D   26169.85978644  .00003109  00000+0  19389-3 0  9992
2 39419  97.4563 159.9599 0012004  35.4343 324.7682 15.10190277686643
GPM-CORE                
1 39574U 14009C   26169.82810911  .00008981  00000+0  19679-3 0  9996
2 39574  64.9726 302.6310 0011773 252.1360 107.8497 15.44600582698067
SENTINEL-1A             
1 39634U 14016A   26169.87606566 -.00000014  00000+0  67967-5 0  9990
2 39634  98.1775 177.3843 0001418  81.4129 278.7231 14.59199024650269
KAZEOSAT 1              
1 39731U 14024A   26169.82569383 -.00000045  00000+0 -77982-6 0  9991
2 39731  98.3205 242.2322 0001319  75.1249 285.0087 14.42080046638793
ALOS-2                  
1 39766U 14029A   26169.82999184  .00001234  00000+0  17207-3 0  9990
2 39766  97.9224 266.9699 0001661  91.0596 269.0805 14.79473749651824
KAZEOSAT 2              
1 40010U 14033A   26169.84668365  .00000788  00000+0  97106-4 0  9995
2 40010  97.5398   9.3703 0007709 323.5847  36.4844 14.85472454649209
